{"cities":[{"firstLetter":"S","provinceCode":11,"code":1101,"pinyin":"shi xia qu","name":"北京"},{"firstLetter":"S","provinceCode":12,"code":1201,"pinyin":"shi xia qu","name":"天津"},{"firstLetter":"S","provinceCode":13,"code":1301,"pinyin":"shi jia zhuang shi","name":"石家庄"},{"firstLetter":"T","provinceCode":13,"code":1302,"pinyin":"tang shan shi","name":"唐山"},{"firstLetter":"Q","provinceCode":13,"code":1303,"pinyin":"qin huang dao shi","name":"秦皇岛"},{"firstLetter":"H","provinceCode":13,"code":1304,"pinyin":"han dan shi","name":"邯郸"},{"firstLetter":"X","provinceCode":13,"code":1305,"pinyin":"xing tai shi","name":"邢台"},{"firstLetter":"B","provinceCode":13,"code":1306,"pinyin":"bao ding shi","name":"保定"},{"firstLetter":"Z","provinceCode":13,"code":1307,"pinyin":"zhang jia kou shi","name":"张家口"},{"firstLetter":"C","provinceCode":13,"code":1308,"pinyin":"cheng de shi","name":"承德"},{"firstLetter":"C","provinceCode":13,"code":1309,"pinyin":"cang zhou shi","name":"沧州"},{"firstLetter":"L","provinceCode":13,"code":1310,"pinyin":"lang fang shi","name":"廊坊"},{"firstLetter":"H","provinceCode":13,"code":1311,"pinyin":"heng shui shi","name":"衡水"},{"firstLetter":"T","provinceCode":14,"code":1401,"pinyin":"tai yuan shi","name":"太原"},{"firstLetter":"D","provinceCode":14,"code":1402,"pinyin":"da tong shi","name":"大同"},{"firstLetter":"Y","provinceCode":14,"code":1403,"pinyin":"yang quan shi","name":"阳泉"},{"firstLetter":"Z","provinceCode":14,"code":1404,"pinyin":"zhang zhi shi","name":"长治"},{"firstLetter":"J","provinceCode":14,"code":1405,"pinyin":"jin cheng shi","name":"晋城"},{"firstLetter":"S","provinceCode":14,"code":1406,"pinyin":"shuo zhou shi","name":"朔州"},{"firstLetter":"J","provinceCode":14,"code":1407,"pinyin":"jin zhong shi","name":"晋中"},{"firstLetter":"Y","provinceCode":14,"code":1408,"pinyin":"yun cheng shi","name":"运城"},{"firstLetter":"X","provinceCode":14,"code":1409,"pinyin":"xin zhou shi","name":"忻州"},{"firstLetter":"L","provinceCode":14,"code":1410,"pinyin":"lin fen shi","name":"临汾"},{"firstLetter":"L","provinceCode":14,"code":1411,"pinyin":"lu liang shi","name":"吕梁"},{"firstLetter":"H","provinceCode":15,"code":1501,"pinyin":"hu he hao te shi","name":"呼和浩特"},{"firstLetter":"B","provinceCode":15,"code":1502,"pinyin":"bao tou shi","name":"包头"},{"firstLetter":"W","provinceCode":15,"code":1503,"pinyin":"wu hai shi","name":"乌海"},{"firstLetter":"C","provinceCode":15,"code":1504,"pinyin":"chi feng shi","name":"赤峰"},{"firstLetter":"T","provinceCode":15,"code":1505,"pinyin":"tong liao shi","name":"通辽"},{"firstLetter":"E","provinceCode":15,"code":1506,"pinyin":"e er duo si shi","name":"鄂尔多斯"},{"firstLetter":"H","provinceCode":15,"code":1507,"pinyin":"hu lun bei er shi","name":"呼伦贝尔"},{"firstLetter":"B","provinceCode":15,"code":1508,"pinyin":"ba yan nao er shi","name":"巴彦淖尔"},{"firstLetter":"W","provinceCode":15,"code":1509,"pinyin":"wu lan cha bu shi","name":"乌兰察布"},{"firstLetter":"X","provinceCode":15,"code":1522,"pinyin":"xing an meng","name":"兴安盟"},{"firstLetter":"X","provinceCode":15,"code":1525,"pinyin":"xi lin guo lei meng","name":"锡林郭勒盟"},{"firstLetter":"A","provinceCode":15,"code":1529,"pinyin":"a la shan meng","name":"阿拉善盟"},{"firstLetter":"S","provinceCode":21,"code":2101,"pinyin":"shen yang shi","name":"沈阳"},{"firstLetter":"D","provinceCode":21,"code":2102,"pinyin":"da lian shi","name":"大连"},{"firstLetter":"A","provinceCode":21,"code":2103,"pinyin":"an shan shi","name":"鞍山"},{"firstLetter":"F","provinceCode":21,"code":2104,"pinyin":"fu shun shi","name":"抚顺"},{"firstLetter":"B","provinceCode":21,"code":2105,"pinyin":"ben xi shi","name":"本溪"},{"firstLetter":"D","provinceCode":21,"code":2106,"pinyin":"dan dong shi","name":"丹东"},{"firstLetter":"J","provinceCode":21,"code":2107,"pinyin":"jin zhou shi","name":"锦州"},{"firstLetter":"Y","provinceCode":21,"code":2108,"pinyin":"ying kou shi","name":"营口"},{"firstLetter":"F","provinceCode":21,"code":2109,"pinyin":"fu xin shi","name":"阜新"},{"firstLetter":"L","provinceCode":21,"code":2110,"pinyin":"liao yang shi","name":"辽阳"},{"firstLetter":"P","provinceCode":21,"code":2111,"pinyin":"pan jin shi","name":"盘锦"},{"firstLetter":"T","provinceCode":21,"code":2112,"pinyin":"tie ling shi","name":"铁岭"},{"firstLetter":"C","provinceCode":21,"code":2113,"pinyin":"chao yang shi","name":"朝阳"},{"firstLetter":"H","provinceCode":21,"code":2114,"pinyin":"hu lu dao shi","name":"葫芦岛"},{"firstLetter":"Z","provinceCode":22,"code":2201,"pinyin":"zhang chun shi","name":"长春"},{"firstLetter":"J","provinceCode":22,"code":2202,"pinyin":"ji lin shi","name":"吉林"},{"firstLetter":"S","provinceCode":22,"code":2203,"pinyin":"si ping shi","name":"四平"},{"firstLetter":"L","provinceCode":22,"code":2204,"pinyin":"liao yuan shi","name":"辽源"},{"firstLetter":"T","provinceCode":22,"code":2205,"pinyin":"tong hua shi","name":"通化"},{"firstLetter":"B","provinceCode":22,"code":2206,"pinyin":"bai shan shi","name":"白山"},{"firstLetter":"S","provinceCode":22,"code":2207,"pinyin":"song yuan shi","name":"松原"},{"firstLetter":"B","provinceCode":22,"code":2208,"pinyin":"bai cheng shi","name":"白城"},{"firstLetter":"Y","provinceCode":22,"code":2224,"pinyin":"yan bian chao xian zu zi zhi zhou","name":"延边朝鲜族自治州"},{"firstLetter":"H","provinceCode":23,"code":2301,"pinyin":"ha er bin shi","name":"哈尔滨"},{"firstLetter":"Q","provinceCode":23,"code":2302,"pinyin":"qi qi ha er shi","name":"齐齐哈尔"},{"firstLetter":"J","provinceCode":23,"code":2303,"pinyin":"ji xi shi","name":"鸡西"},{"firstLetter":"H","provinceCode":23,"code":2304,"pinyin":"he gang shi","name":"鹤岗"},{"firstLetter":"S","provinceCode":23,"code":2305,"pinyin":"shuang ya shan shi","name":"双鸭山"},{"firstLetter":"D","provinceCode":23,"code":2306,"pinyin":"da qing shi","name":"大庆"},{"firstLetter":"Y","provinceCode":23,"code":2307,"pinyin":"yi chun shi","name":"伊春"},{"firstLetter":"J","provinceCode":23,"code":2308,"pinyin":"jia mu si shi","name":"佳木斯"},{"firstLetter":"Q","provinceCode":23,"code":2309,"pinyin":"qi tai he shi","name":"七台河"},{"firstLetter":"M","provinceCode":23,"code":2310,"pinyin":"mu dan jiang shi","name":"牡丹江"},{"firstLetter":"H","provinceCode":23,"code":2311,"pinyin":"hei he shi","name":"黑河"},{"firstLetter":"S","provinceCode":23,"code":2312,"pinyin":"sui hua shi","name":"绥化"},{"firstLetter":"D","provinceCode":23,"code":2327,"pinyin":"da xing an ling de qu","name":"大兴安岭地区"},{"firstLetter":"S","provinceCode":31,"code":3101,"pinyin":"shi xia qu","name":"上海"},{"firstLetter":"N","provinceCode":32,"code":3201,"pinyin":"nan jing shi","name":"南京"},{"firstLetter":"W","provinceCode":32,"code":3202,"pinyin":"wu xi shi","name":"无锡"},{"firstLetter":"X","provinceCode":32,"code":3203,"pinyin":"xu zhou shi","name":"徐州"},{"firstLetter":"C","provinceCode":32,"code":3204,"pinyin":"chang zhou shi","name":"常州"},{"firstLetter":"S","provinceCode":32,"code":3205,"pinyin":"su zhou shi","name":"苏州"},{"firstLetter":"N","provinceCode":32,"code":3206,"pinyin":"nan tong shi","name":"南通"},{"firstLetter":"L","provinceCode":32,"code":3207,"pinyin":"lian yun gang shi","name":"连云港"},{"firstLetter":"H","provinceCode":32,"code":3208,"pinyin":"huai an shi","name":"淮安"},{"firstLetter":"Y","provinceCode":32,"code":3209,"pinyin":"yan cheng shi","name":"盐城"},{"firstLetter":"Y","provinceCode":32,"code":3210,"pinyin":"yang zhou shi","name":"扬州"},{"firstLetter":"Z","provinceCode":32,"code":3211,"pinyin":"zhen jiang shi","name":"镇江"},{"firstLetter":"T","provinceCode":32,"code":3212,"pinyin":"tai zhou shi","name":"泰州"},{"firstLetter":"S","provinceCode":32,"code":3213,"pinyin":"su qian shi","name":"宿迁"},{"firstLetter":"H","provinceCode":33,"code":3301,"pinyin":"hang zhou shi","name":"杭州"},{"firstLetter":"N","provinceCode":33,"code":3302,"pinyin":"ning bo shi","name":"宁波"},{"firstLetter":"W","provinceCode":33,"code":3303,"pinyin":"wen zhou shi","name":"温州"},{"firstLetter":"J","provinceCode":33,"code":3304,"pinyin":"jia xing shi","name":"嘉兴"},{"firstLetter":"H","provinceCode":33,"code":3305,"pinyin":"hu zhou shi","name":"湖州"},{"firstLetter":"S","provinceCode":33,"code":3306,"pinyin":"shao xing shi","name":"绍兴"},{"firstLetter":"J","provinceCode":33,"code":3307,"pinyin":"jin hua shi","name":"金华"},{"firstLetter":"Q","provinceCode":33,"code":3308,"pinyin":"qu zhou shi","name":"衢州"},{"firstLetter":"Z","provinceCode":33,"code":3309,"pinyin":"zhou shan shi","name":"舟山"},{"firstLetter":"T","provinceCode":33,"code":3310,"pinyin":"tai zhou shi","name":"台州"},{"firstLetter":"L","provinceCode":33,"code":3311,"pinyin":"li shui shi","name":"丽水"},{"firstLetter":"H","provinceCode":34,"code":3401,"pinyin":"he fei shi","name":"合肥"},{"firstLetter":"W","provinceCode":34,"code":3402,"pinyin":"wu hu shi","name":"芜湖"},{"firstLetter":"B","provinceCode":34,"code":3403,"pinyin":"bang bu shi","name":"蚌埠"},{"firstLetter":"H","provinceCode":34,"code":3404,"pinyin":"huai nan shi","name":"淮南"},{"firstLetter":"M","provinceCode":34,"code":3405,"pinyin":"ma an shan shi","name":"马鞍山"},{"firstLetter":"H","provinceCode":34,"code":3406,"pinyin":"huai bei shi","name":"淮北"},{"firstLetter":"T","provinceCode":34,"code":3407,"pinyin":"tong ling shi","name":"铜陵"},{"firstLetter":"A","provinceCode":34,"code":3408,"pinyin":"an qing shi","name":"安庆"},{"firstLetter":"H","provinceCode":34,"code":3410,"pinyin":"huang shan shi","name":"黄山"},{"firstLetter":"C","provinceCode":34,"code":3411,"pinyin":"chu zhou shi","name":"滁州"},{"firstLetter":"F","provinceCode":34,"code":3412,"pinyin":"fu yang shi","name":"阜阳"},{"firstLetter":"S","provinceCode":34,"code":3413,"pinyin":"su zhou shi","name":"宿州"},{"firstLetter":"L","provinceCode":34,"code":3415,"pinyin":"liu an shi","name":"六安"},{"firstLetter":"B","provinceCode":34,"code":3416,"pinyin":"bo zhou shi","name":"亳州"},{"firstLetter":"C","provinceCode":34,"code":3417,"pinyin":"chi zhou shi","name":"池州"},{"firstLetter":"X","provinceCode":34,"code":3418,"pinyin":"xuan cheng shi","name":"宣城"},{"firstLetter":"F","provinceCode":35,"code":3501,"pinyin":"fu zhou shi","name":"福州"},{"firstLetter":"S","provinceCode":35,"code":3502,"pinyin":"sha men shi","name":"厦门"},{"firstLetter":"P","provinceCode":35,"code":3503,"pinyin":"pu tian shi","name":"莆田"},{"firstLetter":"S","provinceCode":35,"code":3504,"pinyin":"san ming shi","name":"三明"},{"firstLetter":"Q","provinceCode":35,"code":3505,"pinyin":"quan zhou shi","name":"泉州"},{"firstLetter":"Z","provinceCode":35,"code":3506,"pinyin":"zhang zhou shi","name":"漳州"},{"firstLetter":"N","provinceCode":35,"code":3507,"pinyin":"nan ping shi","name":"南平"},{"firstLetter":"L","provinceCode":35,"code":3508,"pinyin":"long yan shi","name":"龙岩"},{"firstLetter":"N","provinceCode":35,"code":3509,"pinyin":"ning de shi","name":"宁德"},{"firstLetter":"N","provinceCode":36,"code":3601,"pinyin":"nan chang shi","name":"南昌"},{"firstLetter":"J","provinceCode":36,"code":3602,"pinyin":"jing de zhen shi","name":"景德镇"},{"firstLetter":"P","provinceCode":36,"code":3603,"pinyin":"ping xiang shi","name":"萍乡"},{"firstLetter":"J","provinceCode":36,"code":3604,"pinyin":"jiu jiang shi","name":"九江"},{"firstLetter":"X","provinceCode":36,"code":3605,"pinyin":"xin yu shi","name":"新余"},{"firstLetter":"Y","provinceCode":36,"code":3606,"pinyin":"ying tan shi","name":"鹰潭"},{"firstLetter":"G","provinceCode":36,"code":3607,"pinyin":"gan zhou shi","name":"赣州"},{"firstLetter":"J","provinceCode":36,"code":3608,"pinyin":"ji an shi","name":"吉安"},{"firstLetter":"Y","provinceCode":36,"code":3609,"pinyin":"yi chun shi","name":"宜春"},{"firstLetter":"F","provinceCode":36,"code":3610,"pinyin":"fu zhou shi","name":"抚州"},{"firstLetter":"S","provinceCode":36,"code":3611,"pinyin":"shang rao shi","name":"上饶"},{"firstLetter":"J","provinceCode":37,"code":3701,"pinyin":"ji nan shi","name":"济南"},{"firstLetter":"Q","provinceCode":37,"code":3702,"pinyin":"qing dao shi","name":"青岛"},{"firstLetter":"Z","provinceCode":37,"code":3703,"pinyin":"zi bo shi","name":"淄博"},{"firstLetter":"Z","provinceCode":37,"code":3704,"pinyin":"zao zhuang shi","name":"枣庄"},{"firstLetter":"D","provinceCode":37,"code":3705,"pinyin":"dong ying shi","name":"东营"},{"firstLetter":"Y","provinceCode":37,"code":3706,"pinyin":"yan tai shi","name":"烟台"},{"firstLetter":"W","provinceCode":37,"code":3707,"pinyin":"wei fang shi","name":"潍坊"},{"firstLetter":"J","provinceCode":37,"code":3708,"pinyin":"ji ning shi","name":"济宁"},{"firstLetter":"T","provinceCode":37,"code":3709,"pinyin":"tai an shi","name":"泰安"},{"firstLetter":"W","provinceCode":37,"code":3710,"pinyin":"wei hai shi","name":"威海"},{"firstLetter":"R","provinceCode":37,"code":3711,"pinyin":"ri zhao shi","name":"日照"},{"firstLetter":"L","provinceCode":37,"code":3712,"pinyin":"lai wu shi","name":"莱芜"},{"firstLetter":"L","provinceCode":37,"code":3713,"pinyin":"lin yi shi","name":"临沂"},{"firstLetter":"D","provinceCode":37,"code":3714,"pinyin":"de zhou shi","name":"德州"},{"firstLetter":"L","provinceCode":37,"code":3715,"pinyin":"liao cheng shi","name":"聊城"},{"firstLetter":"B","provinceCode":37,"code":3716,"pinyin":"bin zhou shi","name":"滨州"},{"firstLetter":"H","provinceCode":37,"code":3717,"pinyin":"he ze shi","name":"菏泽"},{"firstLetter":"Z","provinceCode":41,"code":4101,"pinyin":"zheng zhou shi","name":"郑州"},{"firstLetter":"K","provinceCode":41,"code":4102,"pinyin":"kai feng shi","name":"开封"},{"firstLetter":"L","provinceCode":41,"code":4103,"pinyin":"luo yang shi","name":"洛阳"},{"firstLetter":"P","provinceCode":41,"code":4104,"pinyin":"ping ding shan shi","name":"平顶山"},{"firstLetter":"A","provinceCode":41,"code":4105,"pinyin":"an yang shi","name":"安阳"},{"firstLetter":"H","provinceCode":41,"code":4106,"pinyin":"he bi shi","name":"鹤壁"},{"firstLetter":"X","provinceCode":41,"code":4107,"pinyin":"xin xiang shi","name":"新乡"},{"firstLetter":"J","provinceCode":41,"code":4108,"pinyin":"jiao zuo shi","name":"焦作"},{"firstLetter":"P","provinceCode":41,"code":4109,"pinyin":"pu yang shi","name":"濮阳"},{"firstLetter":"X","provinceCode":41,"code":4110,"pinyin":"xu chang shi","name":"许昌"},{"firstLetter":"L","provinceCode":41,"code":4111,"pinyin":"luo he shi","name":"漯河"},{"firstLetter":"S","provinceCode":41,"code":4112,"pinyin":"san men xia shi","name":"三门峡"},{"firstLetter":"N","provinceCode":41,"code":4113,"pinyin":"nan yang shi","name":"南阳"},{"firstLetter":"S","provinceCode":41,"code":4114,"pinyin":"shang qiu shi","name":"商丘"},{"firstLetter":"X","provinceCode":41,"code":4115,"pinyin":"xin yang shi","name":"信阳"},{"firstLetter":"Z","provinceCode":41,"code":4116,"pinyin":"zhou kou shi","name":"周口"},{"firstLetter":"Z","provinceCode":41,"code":4117,"pinyin":"zhu ma dian shi","name":"驻马店"},{"firstLetter":"H","provinceCode":41,"code":4190,"pinyin":"he nan sheng zhi xia xian ji xing zheng qu","name":"河南省直辖县级行政区"},{"firstLetter":"W","provinceCode":42,"code":4201,"pinyin":"wu han shi","name":"武汉"},{"firstLetter":"H","provinceCode":42,"code":4202,"pinyin":"huang shi shi","name":"黄石"},{"firstLetter":"S","provinceCode":42,"code":4203,"pinyin":"shi yan shi","name":"十堰"},{"firstLetter":"Y","provinceCode":42,"code":4205,"pinyin":"yi chang shi","name":"宜昌"},{"firstLetter":"X","provinceCode":42,"code":4206,"pinyin":"xiang yang shi","name":"襄阳"},{"firstLetter":"E","provinceCode":42,"code":4207,"pinyin":"e zhou shi","name":"鄂州"},{"firstLetter":"J","provinceCode":42,"code":4208,"pinyin":"jing men shi","name":"荆门"},{"firstLetter":"X","provinceCode":42,"code":4209,"pinyin":"xiao gan shi","name":"孝感"},{"firstLetter":"J","provinceCode":42,"code":4210,"pinyin":"jing zhou shi","name":"荆州"},{"firstLetter":"H","provinceCode":42,"code":4211,"pinyin":"huang gang shi","name":"黄冈"},{"firstLetter":"X","provinceCode":42,"code":4212,"pinyin":"xian ning shi","name":"咸宁"},{"firstLetter":"S","provinceCode":42,"code":4213,"pinyin":"sui zhou shi","name":"随州"},{"firstLetter":"E","provinceCode":42,"code":4228,"pinyin":"en shi tu jia zu miao zu zi zhi zhou","name":"恩施土家族苗族自治州"},{"firstLetter":"H","provinceCode":42,"code":4290,"pinyin":"hu bei sheng zhi xia xian ji xing zheng qu","name":"湖北省直辖县级行政区"},{"firstLetter":"Z","provinceCode":43,"code":4301,"pinyin":"zhang sha shi","name":"长沙"},{"firstLetter":"Z","provinceCode":43,"code":4302,"pinyin":"zhu zhou shi","name":"株洲"},{"firstLetter":"X","provinceCode":43,"code":4303,"pinyin":"xiang tan shi","name":"湘潭"},{"firstLetter":"H","provinceCode":43,"code":4304,"pinyin":"heng yang shi","name":"衡阳"},{"firstLetter":"S","provinceCode":43,"code":4305,"pinyin":"shao yang shi","name":"邵阳"},{"firstLetter":"Y","provinceCode":43,"code":4306,"pinyin":"yue yang shi","name":"岳阳"},{"firstLetter":"C","provinceCode":43,"code":4307,"pinyin":"chang de shi","name":"常德"},{"firstLetter":"Z","provinceCode":43,"code":4308,"pinyin":"zhang jia jie shi","name":"张家界"},{"firstLetter":"Y","provinceCode":43,"code":4309,"pinyin":"yi yang shi","name":"益阳"},{"firstLetter":"C","provinceCode":43,"code":4310,"pinyin":"chen zhou shi","name":"郴州"},{"firstLetter":"Y","provinceCode":43,"code":4311,"pinyin":"yong zhou shi","name":"永州"},{"firstLetter":"H","provinceCode":43,"code":4312,"pinyin":"huai hua shi","name":"怀化"},{"firstLetter":"L","provinceCode":43,"code":4313,"pinyin":"lou di shi","name":"娄底"},{"firstLetter":"X","provinceCode":43,"code":4331,"pinyin":"xiang xi tu jia zu miao zu zi zhi zhou","name":"湘西土家族苗族自治州"},{"firstLetter":"G","provinceCode":44,"code":4401,"pinyin":"guang zhou shi","name":"广州"},{"firstLetter":"S","provinceCode":44,"code":4402,"pinyin":"shao guan shi","name":"韶关"},{"firstLetter":"S","provinceCode":44,"code":4403,"pinyin":"shen zhen shi","name":"深圳"},{"firstLetter":"Z","provinceCode":44,"code":4404,"pinyin":"zhu hai shi","name":"珠海"},{"firstLetter":"S","provinceCode":44,"code":4405,"pinyin":"shan tou shi","name":"汕头"},{"firstLetter":"F","provinceCode":44,"code":4406,"pinyin":"fu shan shi","name":"佛山"},{"firstLetter":"J","provinceCode":44,"code":4407,"pinyin":"jiang men shi","name":"江门"},{"firstLetter":"Z","provinceCode":44,"code":4408,"pinyin":"zhan jiang shi","name":"湛江"},{"firstLetter":"M","provinceCode":44,"code":4409,"pinyin":"mao ming shi","name":"茂名"},{"firstLetter":"Z","provinceCode":44,"code":4412,"pinyin":"zhao qing shi","name":"肇庆"},{"firstLetter":"H","provinceCode":44,"code":4413,"pinyin":"hui zhou shi","name":"惠州"},{"firstLetter":"M","provinceCode":44,"code":4414,"pinyin":"mei zhou shi","name":"梅州"},{"firstLetter":"S","provinceCode":44,"code":4415,"pinyin":"shan wei shi","name":"汕尾"},{"firstLetter":"H","provinceCode":44,"code":4416,"pinyin":"he yuan shi","name":"河源"},{"firstLetter":"Y","provinceCode":44,"code":4417,"pinyin":"yang jiang shi","name":"阳江"},{"firstLetter":"Q","provinceCode":44,"code":4418,"pinyin":"qing yuan shi","name":"清远"},{"firstLetter":"D","provinceCode":44,"code":4419,"pinyin":"dong guan shi","name":"东莞"},{"firstLetter":"Z","provinceCode":44,"code":4420,"pinyin":"zhong shan shi","name":"中山"},{"firstLetter":"C","provinceCode":44,"code":4451,"pinyin":"chao zhou shi","name":"潮州"},{"firstLetter":"J","provinceCode":44,"code":4452,"pinyin":"jie yang shi","name":"揭阳"},{"firstLetter":"Y","provinceCode":44,"code":4453,"pinyin":"yun fu shi","name":"云浮"},{"firstLetter":"N","provinceCode":45,"code":4501,"pinyin":"nan ning shi","name":"南宁"},{"firstLetter":"L","provinceCode":45,"code":4502,"pinyin":"liu zhou shi","name":"柳州"},{"firstLetter":"G","provinceCode":45,"code":4503,"pinyin":"gui lin shi","name":"桂林"},{"firstLetter":"W","provinceCode":45,"code":4504,"pinyin":"wu zhou shi","name":"梧州"},{"firstLetter":"B","provinceCode":45,"code":4505,"pinyin":"bei hai shi","name":"北海"},{"firstLetter":"F","provinceCode":45,"code":4506,"pinyin":"fang cheng gang shi","name":"防城港"},{"firstLetter":"Q","provinceCode":45,"code":4507,"pinyin":"qin zhou shi","name":"钦州"},{"firstLetter":"G","provinceCode":45,"code":4508,"pinyin":"gui gang shi","name":"贵港"},{"firstLetter":"Y","provinceCode":45,"code":4509,"pinyin":"yu lin shi","name":"玉林"},{"firstLetter":"B","provinceCode":45,"code":4510,"pinyin":"bai se shi","name":"百色"},{"firstLetter":"H","provinceCode":45,"code":4511,"pinyin":"he zhou shi","name":"贺州"},{"firstLetter":"H","provinceCode":45,"code":4512,"pinyin":"he chi shi","name":"河池"},{"firstLetter":"L","provinceCode":45,"code":4513,"pinyin":"lai bin shi","name":"来宾"},{"firstLetter":"C","provinceCode":45,"code":4514,"pinyin":"chong zuo shi","name":"崇左"},{"firstLetter":"H","provinceCode":46,"code":4601,"pinyin":"hai kou shi","name":"海口"},{"firstLetter":"S","provinceCode":46,"code":4602,"pinyin":"san ya shi","name":"三亚"},{"firstLetter":"S","provinceCode":46,"code":4603,"pinyin":"san sha shi","name":"三沙"},{"firstLetter":"D","provinceCode":46,"code":4604,"pinyin":"dan zhou shi","name":"儋州"},{"firstLetter":"H","provinceCode":46,"code":4690,"pinyin":"hai nan sheng zhi xia xian ji xing zheng qu","name":"海南省直辖县级行政区"},{"firstLetter":"S","provinceCode":50,"code":5001,"pinyin":"shi xia qu","name":"重庆"},{"firstLetter":"X","provinceCode":50,"code":5002,"pinyin":"xian","name":"重庆市辖县"},{"firstLetter":"C","provinceCode":51,"code":5101,"pinyin":"cheng dou shi","name":"成都"},{"firstLetter":"Z","provinceCode":51,"code":5103,"pinyin":"zi gong shi","name":"自贡"},{"firstLetter":"P","provinceCode":51,"code":5104,"pinyin":"pan zhi hua shi","name":"攀枝花"},{"firstLetter":"L","provinceCode":51,"code":5105,"pinyin":"lu zhou shi","name":"泸州"},{"firstLetter":"D","provinceCode":51,"code":5106,"pinyin":"de yang shi","name":"德阳"},{"firstLetter":"M","provinceCode":51,"code":5107,"pinyin":"mian yang shi","name":"绵阳"},{"firstLetter":"G","provinceCode":51,"code":5108,"pinyin":"guang yuan shi","name":"广元"},{"firstLetter":"S","provinceCode":51,"code":5109,"pinyin":"sui ning shi","name":"遂宁"},{"firstLetter":"N","provinceCode":51,"code":5110,"pinyin":"nei jiang shi","name":"内江"},{"firstLetter":"L","provinceCode":51,"code":5111,"pinyin":"le shan shi","name":"乐山"},{"firstLetter":"N","provinceCode":51,"code":5113,"pinyin":"nan chong shi","name":"南充"},{"firstLetter":"M","provinceCode":51,"code":5114,"pinyin":"mei shan shi","name":"眉山"},{"firstLetter":"Y","provinceCode":51,"code":5115,"pinyin":"yi bin shi","name":"宜宾"},{"firstLetter":"G","provinceCode":51,"code":5116,"pinyin":"guang an shi","name":"广安"},{"firstLetter":"D","provinceCode":51,"code":5117,"pinyin":"da zhou shi","name":"达州"},{"firstLetter":"Y","provinceCode":51,"code":5118,"pinyin":"ya an shi","name":"雅安"},{"firstLetter":"B","provinceCode":51,"code":5119,"pinyin":"ba zhong shi","name":"巴中"},{"firstLetter":"Z","provinceCode":51,"code":5120,"pinyin":"zi yang shi","name":"资阳"},{"firstLetter":"A","provinceCode":51,"code":5132,"pinyin":"a ba cang zu qiang zu zi zhi zhou","name":"阿坝藏族羌族自治州"},{"firstLetter":"G","provinceCode":51,"code":5133,"pinyin":"gan zi cang zu zi zhi zhou","name":"甘孜藏族自治州"},{"firstLetter":"L","provinceCode":51,"code":5134,"pinyin":"liang shan yi zu zi zhi zhou","name":"凉山彝族自治州"},{"firstLetter":"G","provinceCode":52,"code":5201,"pinyin":"gui yang shi","name":"贵阳"},{"firstLetter":"L","provinceCode":52,"code":5202,"pinyin":"liu pan shui shi","name":"六盘水"},{"firstLetter":"Z","provinceCode":52,"code":5203,"pinyin":"zun yi shi","name":"遵义"},{"firstLetter":"A","provinceCode":52,"code":5204,"pinyin":"an shun shi","name":"安顺"},{"firstLetter":"B","provinceCode":52,"code":5205,"pinyin":"bi jie shi","name":"毕节"},{"firstLetter":"T","provinceCode":52,"code":5206,"pinyin":"tong ren shi","name":"铜仁"},{"firstLetter":"Q","provinceCode":52,"code":5223,"pinyin":"qian xi nan bu yi zu miao zu zi zhi zhou","name":"黔西南布依族苗族自治州"},{"firstLetter":"Q","provinceCode":52,"code":5226,"pinyin":"qian dong nan miao zu dong zu zi zhi zhou","name":"黔东南苗族侗族自治州"},{"firstLetter":"Q","provinceCode":52,"code":5227,"pinyin":"qian nan bu yi zu miao zu zi zhi zhou","name":"黔南布依族苗族自治州"},{"firstLetter":"K","provinceCode":53,"code":5301,"pinyin":"kun ming shi","name":"昆明"},{"firstLetter":"Q","provinceCode":53,"code":5303,"pinyin":"qu jing shi","name":"曲靖"},{"firstLetter":"Y","provinceCode":53,"code":5304,"pinyin":"yu xi shi","name":"玉溪"},{"firstLetter":"B","provinceCode":53,"code":5305,"pinyin":"bao shan shi","name":"保山"},{"firstLetter":"Z","provinceCode":53,"code":5306,"pinyin":"zhao tong shi","name":"昭通"},{"firstLetter":"L","provinceCode":53,"code":5307,"pinyin":"li jiang shi","name":"丽江"},{"firstLetter":"P","provinceCode":53,"code":5308,"pinyin":"pu er shi","name":"普洱"},{"firstLetter":"L","provinceCode":53,"code":5309,"pinyin":"lin cang shi","name":"临沧"},{"firstLetter":"C","provinceCode":53,"code":5323,"pinyin":"chu xiong yi zu zi zhi zhou","name":"楚雄彝族自治州"},{"firstLetter":"H","provinceCode":53,"code":5325,"pinyin":"hong he ha ni zu yi zu zi zhi zhou","name":"红河哈尼族彝族自治州"},{"firstLetter":"W","provinceCode":53,"code":5326,"pinyin":"wen shan zhuang zu miao zu zi zhi zhou","name":"文山壮族苗族自治州"},{"firstLetter":"X","provinceCode":53,"code":5328,"pinyin":"xi shuang ban na dai zu zi zhi zhou","name":"西双版纳傣族自治州"},{"firstLetter":"D","provinceCode":53,"code":5329,"pinyin":"da li bai zu zi zhi zhou","name":"大理白族自治州"},{"firstLetter":"D","provinceCode":53,"code":5331,"pinyin":"de hong dai zu jing po zu zi zhi zhou","name":"德宏傣族景颇族自治州"},{"firstLetter":"N","provinceCode":53,"code":5333,"pinyin":"nu jiang li su zu zi zhi zhou","name":"怒江傈僳族自治州"},{"firstLetter":"D","provinceCode":53,"code":5334,"pinyin":"di qing cang zu zi zhi zhou","name":"迪庆藏族自治州"},{"firstLetter":"L","provinceCode":54,"code":5401,"pinyin":"la sa shi","name":"拉萨"},{"firstLetter":"R","provinceCode":54,"code":5402,"pinyin":"ri ka ze shi","name":"日喀则"},{"firstLetter":"C","provinceCode":54,"code":5403,"pinyin":"chang dou shi","name":"昌都"},{"firstLetter":"L","provinceCode":54,"code":5404,"pinyin":"lin zhi shi","name":"林芝"},{"firstLetter":"S","provinceCode":54,"code":5405,"pinyin":"shan nan shi","name":"山南"},{"firstLetter":"N","provinceCode":54,"code":5406,"pinyin":"na qu shi","name":"那曲"},{"firstLetter":"A","provinceCode":54,"code":5425,"pinyin":"a li de qu","name":"阿里地区"},{"firstLetter":"X","provinceCode":61,"code":6101,"pinyin":"xi an shi","name":"西安"},{"firstLetter":"T","provinceCode":61,"code":6102,"pinyin":"tong chuan shi","name":"铜川"},{"firstLetter":"B","provinceCode":61,"code":6103,"pinyin":"bao ji shi","name":"宝鸡"},{"firstLetter":"X","provinceCode":61,"code":6104,"pinyin":"xian yang shi","name":"咸阳"},{"firstLetter":"W","provinceCode":61,"code":6105,"pinyin":"wei nan shi","name":"渭南"},{"firstLetter":"Y","provinceCode":61,"code":6106,"pinyin":"yan an shi","name":"延安"},{"firstLetter":"H","provinceCode":61,"code":6107,"pinyin":"han zhong shi","name":"汉中"},{"firstLetter":"Y","provinceCode":61,"code":6108,"pinyin":"yu lin shi","name":"榆林"},{"firstLetter":"A","provinceCode":61,"code":6109,"pinyin":"an kang shi","name":"安康"},{"firstLetter":"S","provinceCode":61,"code":6110,"pinyin":"shang luo shi","name":"商洛"},{"firstLetter":"L","provinceCode":62,"code":6201,"pinyin":"lan zhou shi","name":"兰州"},{"firstLetter":"J","provinceCode":62,"code":6202,"pinyin":"jia yu guan shi","name":"嘉峪关"},{"firstLetter":"J","provinceCode":62,"code":6203,"pinyin":"jin chang shi","name":"金昌"},{"firstLetter":"B","provinceCode":62,"code":6204,"pinyin":"bai yin shi","name":"白银"},{"firstLetter":"T","provinceCode":62,"code":6205,"pinyin":"tian shui shi","name":"天水"},{"firstLetter":"W","provinceCode":62,"code":6206,"pinyin":"wu wei shi","name":"武威"},{"firstLetter":"Z","provinceCode":62,"code":6207,"pinyin":"zhang ye shi","name":"张掖"},{"firstLetter":"P","provinceCode":62,"code":6208,"pinyin":"ping liang shi","name":"平凉"},{"firstLetter":"J","provinceCode":62,"code":6209,"pinyin":"jiu quan shi","name":"酒泉"},{"firstLetter":"Q","provinceCode":62,"code":6210,"pinyin":"qing yang shi","name":"庆阳"},{"firstLetter":"D","provinceCode":62,"code":6211,"pinyin":"ding xi shi","name":"定西"},{"firstLetter":"L","provinceCode":62,"code":6212,"pinyin":"long nan shi","name":"陇南"},{"firstLetter":"L","provinceCode":62,"code":6229,"pinyin":"lin xia hui zu zi zhi zhou","name":"临夏回族自治州"},{"firstLetter":"G","provinceCode":62,"code":6230,"pinyin":"gan nan cang zu zi zhi zhou","name":"甘南藏族自治州"},{"firstLetter":"X","provinceCode":63,"code":6301,"pinyin":"xi ning shi","name":"西宁"},{"firstLetter":"H","provinceCode":63,"code":6302,"pinyin":"hai dong shi","name":"海东"},{"firstLetter":"H","provinceCode":63,"code":6322,"pinyin":"hai bei cang zu zi zhi zhou","name":"海北藏族自治州"},{"firstLetter":"H","provinceCode":63,"code":6323,"pinyin":"huang nan cang zu zi zhi zhou","name":"黄南藏族自治州"},{"firstLetter":"H","provinceCode":63,"code":6325,"pinyin":"hai nan cang zu zi zhi zhou","name":"海南藏族自治州"},{"firstLetter":"G","provinceCode":63,"code":6326,"pinyin":"guo luo cang zu zi zhi zhou","name":"果洛藏族自治州"},{"firstLetter":"Y","provinceCode":63,"code":6327,"pinyin":"yu shu cang zu zi zhi zhou","name":"玉树藏族自治州"},{"firstLetter":"H","provinceCode":63,"code":6328,"pinyin":"hai xi meng gu zu cang zu zi zhi zhou","name":"海西蒙古族藏族自治州"},{"firstLetter":"Y","provinceCode":64,"code":6401,"pinyin":"yin chuan shi","name":"银川"},{"firstLetter":"S","provinceCode":64,"code":6402,"pinyin":"shi zui shan shi","name":"石嘴山"},{"firstLetter":"W","provinceCode":64,"code":6403,"pinyin":"wu zhong shi","name":"吴忠"},{"firstLetter":"G","provinceCode":64,"code":6404,"pinyin":"gu yuan shi","name":"固原"},{"firstLetter":"Z","provinceCode":64,"code":6405,"pinyin":"zhong wei shi","name":"中卫"},{"firstLetter":"W","provinceCode":65,"code":6501,"pinyin":"wu lu mu qi shi","name":"乌鲁木齐"},{"firstLetter":"K","provinceCode":65,"code":6502,"pinyin":"ke la ma yi shi","name":"克拉玛依"},{"firstLetter":"T","provinceCode":65,"code":6504,"pinyin":"tu lu fan shi","name":"吐鲁番"},{"firstLetter":"H","provinceCode":65,"code":6505,"pinyin":"ha mi shi","name":"哈密"},{"firstLetter":"C","provinceCode":65,"code":6523,"pinyin":"chang ji hui zu zi zhi zhou","name":"昌吉回族自治州"},{"firstLetter":"B","provinceCode":65,"code":6527,"pinyin":"bo er ta la meng gu zi zhi zhou","name":"博尔塔拉蒙古自治州"},{"firstLetter":"B","provinceCode":65,"code":6528,"pinyin":"ba yin guo leng meng gu zi zhi zhou","name":"巴音郭楞蒙古自治州"},{"firstLetter":"A","provinceCode":65,"code":6529,"pinyin":"a ke su de qu","name":"阿克苏地区"},{"firstLetter":"K","provinceCode":65,"code":6530,"pinyin":"ke zi lei su ke er ke zi zi zhi zhou","name":"克孜勒苏柯尔克孜自治州"},{"firstLetter":"K","provinceCode":65,"code":6531,"pinyin":"ka shen de qu","name":"喀什地区"},{"firstLetter":"H","provinceCode":65,"code":6532,"pinyin":"he tian de qu","name":"和田地区"},{"firstLetter":"Y","provinceCode":65,"code":6540,"pinyin":"yi li ha sa ke zi zhi zhou","name":"伊犁哈萨克自治州"},{"firstLetter":"T","provinceCode":65,"code":6542,"pinyin":"ta cheng de qu","name":"塔城地区"},{"firstLetter":"A","provinceCode":65,"code":6543,"pinyin":"a lei tai de qu","name":"阿勒泰地区"},{"firstLetter":"X","provinceCode":65,"code":6590,"pinyin":"xin jiang wei wu er zi zhi qu","name":"新疆维吾尔自治区"}]}